CCSDS_OMM_VERS = 2.0
CREATION_DATE  = 
ORIGINATOR     = 

OBJECT_NAME    = ALOS (DAICHI)
OBJECT_ID      = 2006-002A
CENTER_NAME    = EARTH
REF_FRAME      = TEME
TIME_SYSTEM    = UTC
MEAN_ELEMENT_THEORY = SGP/SGP4

EPOCH          = 2025-12-09T15:09:03.019680
MEAN_MOTION    = 14.69473065
ECCENTRICITY   = .00010093
INCLINATION    = 98.1091
RA_OF_ASC_NODE = 295.1404
ARG_OF_PERICENTER = 112.9447
MEAN_ANOMALY   = 247.1865

EPHEMERIS_TYPE = 0
CLASSIFICATION_TYPE = U
NORAD_CAT_ID   = 28931
ELEMENT_SET_NO = 999
REV_AT_EPOCH   = 6025
BSTAR          = .43231617E-3
MEAN_MOTION_DOT = .2513E-4
MEAN_MOTION_DDOT = 0

CCSDS_OMM_VERS = 2.0
CREATION_DATE  = 
ORIGINATOR     = 

OBJECT_NAME    = H-2A R/B
OBJECT_ID      = 2006-002B
CENTER_NAME    = EARTH
REF_FRAME      = TEME
TIME_SYSTEM    = UTC
MEAN_ELEMENT_THEORY = SGP/SGP4

EPOCH          = 2025-12-09T14:44:14.779680
MEAN_MOTION    = 15.14465512
ECCENTRICITY   = .00545008
INCLINATION    = 98.2316
RA_OF_ASC_NODE = 118.1074
ARG_OF_PERICENTER = 187.0265
MEAN_ANOMALY   = 173.0207

EPHEMERIS_TYPE = 0
CLASSIFICATION_TYPE = U
NORAD_CAT_ID   = 28932
ELEMENT_SET_NO = 999
REV_AT_EPOCH   = 8079
BSTAR          = .75731901E-3
MEAN_MOTION_DOT = .14393E-3
MEAN_MOTION_DDOT = 0

CCSDS_OMM_VERS = 2.0
CREATION_DATE  = 
ORIGINATOR     = 

OBJECT_NAME    = RESURS-DK 1
OBJECT_ID      = 2006-021A
CENTER_NAME    = EARTH
REF_FRAME      = TEME
TIME_SYSTEM    = UTC
MEAN_ELEMENT_THEORY = SGP/SGP4

EPOCH          = 2025-12-09T12:32:56.666112
MEAN_MOTION    = 15.12133903
ECCENTRICITY   = .00075461
INCLINATION    = 69.9337
RA_OF_ASC_NODE = 110.1512
ARG_OF_PERICENTER = 262.0089
MEAN_ANOMALY   = 98.0220

EPHEMERIS_TYPE = 0
CLASSIFICATION_TYPE = U
NORAD_CAT_ID   = 29228
ELEMENT_SET_NO = 999
REV_AT_EPOCH   = 7389
BSTAR          = .26304844E-3
MEAN_MOTION_DOT = .4441E-4
MEAN_MOTION_DDOT = 0

CCSDS_OMM_VERS = 2.0
CREATION_DATE  = 
ORIGINATOR     = 

OBJECT_NAME    = CZ-4B R/B
OBJECT_ID      = 2006-046C
CENTER_NAME    = EARTH
REF_FRAME      = TEME
TIME_SYSTEM    = UTC
MEAN_ELEMENT_THEORY = SGP/SGP4

EPOCH          = 2025-12-09T12:49:44.238720
MEAN_MOTION    = 15.15820660
ECCENTRICITY   = .00330607
INCLINATION    = 97.5734
RA_OF_ASC_NODE = 23.6812
ARG_OF_PERICENTER = 218.1046
MEAN_ANOMALY   = 141.7849

EPHEMERIS_TYPE = 0
CLASSIFICATION_TYPE = U
NORAD_CAT_ID   = 29507
ELEMENT_SET_NO = 999
REV_AT_EPOCH   = 4638
BSTAR          = .43282785E-3
MEAN_MOTION_DOT = .8319E-4
MEAN_MOTION_DDOT = 0

CCSDS_OMM_VERS = 2.0
CREATION_DATE  = 
ORIGINATOR     = 

OBJECT_NAME    = CZ-2C R/B
OBJECT_ID      = 2007-010B
CENTER_NAME    = EARTH
REF_FRAME      = TEME
TIME_SYSTEM    = UTC
MEAN_ELEMENT_THEORY = SGP/SGP4

EPOCH          = 2025-12-09T13:09:36.244224
MEAN_MOTION    = 14.20208161
ECCENTRICITY   = .00587983
INCLINATION    = 98.3974
RA_OF_ASC_NODE = 96.3598
ARG_OF_PERICENTER = 195.2997
MEAN_ANOMALY   = 164.6404

EPHEMERIS_TYPE = 0
CLASSIFICATION_TYPE = U
NORAD_CAT_ID   = 31114
ELEMENT_SET_NO = 999
REV_AT_EPOCH   = 96692
BSTAR          = .17694483E-3
MEAN_MOTION_DOT = .343E-5
MEAN_MOTION_DDOT = 0

CCSDS_OMM_VERS = 2.0
CREATION_DATE  = 
ORIGINATOR     = 

OBJECT_NAME    = COSMO-SKYMED 1
OBJECT_ID      = 2007-023A
CENTER_NAME    = EARTH
REF_FRAME      = TEME
TIME_SYSTEM    = UTC
MEAN_ELEMENT_THEORY = SGP/SGP4

EPOCH          = 2025-12-09T13:51:01.211040
MEAN_MOTION    = 14.95727092
ECCENTRICITY   = .00010484
INCLINATION    = 97.8835
RA_OF_ASC_NODE = 168.9559
ARG_OF_PERICENTER = 83.3392
MEAN_ANOMALY   = 276.7948

EPHEMERIS_TYPE = 0
CLASSIFICATION_TYPE = U
NORAD_CAT_ID   = 31598
ELEMENT_SET_NO = 999
REV_AT_EPOCH   = 143
BSTAR          = .52481854E-3
MEAN_MOTION_DOT = .5788E-4
MEAN_MOTION_DDOT = 0

CCSDS_OMM_VERS = 2.0
CREATION_DATE  = 
ORIGINATOR     = 

OBJECT_NAME    = COSMOS 2428
OBJECT_ID      = 2007-029A
CENTER_NAME    = EARTH
REF_FRAME      = TEME
TIME_SYSTEM    = UTC
MEAN_ELEMENT_THEORY = SGP/SGP4

EPOCH          = 2025-12-09T11:33:36.032256
MEAN_MOTION    = 14.12888699
ECCENTRICITY   = .00034784
INCLINATION    = 70.9369
RA_OF_ASC_NODE = 32.7207
ARG_OF_PERICENTER = 28.4644
MEAN_ANOMALY   = 331.6667

EPHEMERIS_TYPE = 0
CLASSIFICATION_TYPE = U
NORAD_CAT_ID   = 31792
ELEMENT_SET_NO = 999
REV_AT_EPOCH   = 95135
BSTAR          = .89555656E-4
MEAN_MOTION_DOT = .119E-5
MEAN_MOTION_DDOT = 0

CCSDS_OMM_VERS = 2.0
CREATION_DATE  = 
ORIGINATOR     = 

OBJECT_NAME    = SL-16 R/B
OBJECT_ID      = 2007-029B
CENTER_NAME    = EARTH
REF_FRAME      = TEME
TIME_SYSTEM    = UTC
MEAN_ELEMENT_THEORY = SGP/SGP4

EPOCH          = 2025-12-09T11:59:16.297152
MEAN_MOTION    = 14.14814942
ECCENTRICITY   = .00022909
INCLINATION    = 70.9759
RA_OF_ASC_NODE = 1.9696
ARG_OF_PERICENTER = 263.4952
MEAN_ANOMALY   = 203.4719

EPHEMERIS_TYPE = 0
CLASSIFICATION_TYPE = U
NORAD_CAT_ID   = 31793
ELEMENT_SET_NO = 999
REV_AT_EPOCH   = 95261
BSTAR          = -.52504201E-4
MEAN_MOTION_DOT = -.149E-5
MEAN_MOTION_DDOT = 0

CCSDS_OMM_VERS = 2.0
CREATION_DATE  = 
ORIGINATOR     = 

OBJECT_NAME    = KORONAS-FOTON
OBJECT_ID      = 2009-003A
CENTER_NAME    = EARTH
REF_FRAME      = TEME
TIME_SYSTEM    = UTC
MEAN_ELEMENT_THEORY = SGP/SGP4

EPOCH          = 2025-12-09T12:11:27.490848
MEAN_MOTION    = 15.41069929
ECCENTRICITY   = .00130863
INCLINATION    = 82.4308
RA_OF_ASC_NODE = 9.4539
ARG_OF_PERICENTER = 118.5403
MEAN_ANOMALY   = 241.7162

EPHEMERIS_TYPE = 0
CLASSIFICATION_TYPE = U
NORAD_CAT_ID   = 33504
ELEMENT_SET_NO = 999
REV_AT_EPOCH   = 93184
BSTAR          = .40155959E-3
MEAN_MOTION_DOT = .1669E-3
MEAN_MOTION_DDOT = 0

CCSDS_OMM_VERS = 2.0
CREATION_DATE  = 
ORIGINATOR     = 

OBJECT_NAME    = CZ-2C R/B
OBJECT_ID      = 2011-030B
CENTER_NAME    = EARTH
REF_FRAME      = TEME
TIME_SYSTEM    = UTC
MEAN_ELEMENT_THEORY = SGP/SGP4

EPOCH          = 2025-12-09T15:24:12.791808
MEAN_MOTION    = 14.80886549
ECCENTRICITY   = .00514066
INCLINATION    = 97.8413
RA_OF_ASC_NODE = 297.8169
ARG_OF_PERICENTER = 284.0022
MEAN_ANOMALY   = 249.3932

EPHEMERIS_TYPE = 0
CLASSIFICATION_TYPE = U
NORAD_CAT_ID   = 37731
ELEMENT_SET_NO = 999
REV_AT_EPOCH   = 77676
BSTAR          = .36703951E-3
MEAN_MOTION_DOT = .2846E-4
MEAN_MOTION_DDOT = 0

CCSDS_OMM_VERS = 2.0
CREATION_DATE  = 
ORIGINATOR     = 

OBJECT_NAME    = H-2A R/B
OBJECT_ID      = 2012-025E
CENTER_NAME    = EARTH
REF_FRAME      = TEME
TIME_SYSTEM    = UTC
MEAN_ELEMENT_THEORY = SGP/SGP4

EPOCH          = 2025-12-09T15:02:27.892608
MEAN_MOTION    = 14.94417638
ECCENTRICITY   = .00436217
INCLINATION    = 98.4598
RA_OF_ASC_NODE = 298.6167
ARG_OF_PERICENTER = 246.5786
MEAN_ANOMALY   = 113.0843

EPHEMERIS_TYPE = 0
CLASSIFICATION_TYPE = U
NORAD_CAT_ID   = 38341
ELEMENT_SET_NO = 999
REV_AT_EPOCH   = 73476
BSTAR          = .55041553E-3
MEAN_MOTION_DOT = .5975E-4
MEAN_MOTION_DDOT = 0

CCSDS_OMM_VERS = 2.0
CREATION_DATE  = 
ORIGINATOR     = 

OBJECT_NAME    = SHIJIAN-16 (SJ-16)
OBJECT_ID      = 2013-057A
CENTER_NAME    = EARTH
REF_FRAME      = TEME
TIME_SYSTEM    = UTC
MEAN_ELEMENT_THEORY = SGP/SGP4

EPOCH          = 2025-12-09T14:02:07.709280
MEAN_MOTION    = 14.91970221
ECCENTRICITY   = .00174776
INCLINATION    = 74.9728
RA_OF_ASC_NODE = 355.6249
ARG_OF_PERICENTER = 327.2278
MEAN_ANOMALY   = 32.7825

EPHEMERIS_TYPE = 0
CLASSIFICATION_TYPE = U
NORAD_CAT_ID   = 39358
ELEMENT_SET_NO = 999
REV_AT_EPOCH   = 65806
BSTAR          = .12423404E-3
MEAN_MOTION_DOT = .1233E-4
MEAN_MOTION_DDOT = 0

