ALOS (DAICHI)           
1 28931U 06002A   25343.63128495  .00002513  00000+0  43232-3 0  9993
2 28931  98.1091 295.1404 0001009 112.9447 247.1865 14.69473065 60257
H-2A R/B                
1 28932U 06002B   25343.61405995  .00014393  00000+0  75732-3 0  9994
2 28932  98.2316 118.1074 0054500 187.0265 173.0207 15.14465512 80798
RESURS-DK 1             
1 29228U 06021A   25343.52287808  .00004441  00000+0  26305-3 0  9990
2 29228  69.9337 110.1512 0007546 262.0089  98.0220 15.12133903 73898
CZ-4B R/B               
1 29507U 06046C   25343.53453980  .00008319  00000+0  43283-3 0  9996
2 29507  97.5734  23.6812 0033060 218.1046 141.7849 15.15820660 46385
CZ-2C R/B               
1 31114U 07010B   25343.54833616  .00000343  00000+0  17694-3 0  9990
2 31114  98.3974  96.3598 0058798 195.2997 164.6404 14.20208161966923
COSMO-SKYMED 1          
1 31598U 07023A   25343.57709735  .00005788  00000+0  52482-3 0  9999
2 31598  97.8835 168.9559 0001048  83.3392 276.7948 14.95727092  1439
COSMOS 2428             
1 31792U 07029A   25343.48166704  .00000119  00000+0  89556-4 0  9990
2 31792  70.9369  32.7207 0003478  28.4644 331.6667 14.12888699951350
SL-16 R/B               
1 31793U 07029B   25343.49949418 -.00000149  00000+0 -52504-4 0  9991
2 31793  70.9759   1.9696 0002290 263.4952 203.4719 14.14814942952614
KORONAS-FOTON           
1 33504U 09003A   25343.50795707  .00016690  00000+0  40156-3 0  9994
2 33504  82.4308   9.4539 0013086 118.5403 241.7162 15.41069929931846
CZ-2C R/B               
1 37731U 11030B   25343.64181472  .00002846  00000+0  36704-3 0  9998
2 37731  97.8413 297.8169 0051406 284.0022 249.3932 14.80886549776769
H-2A R/B                
1 38341U 12025E   25343.62671172  .00005975  00000+0  55042-3 0  9992
2 38341  98.4598 298.6167 0043621 246.5786 113.0843 14.94417638734761
SHIJIAN-16 (SJ-16)      
1 39358U 13057A   25343.58481145  .00001233  00000+0  12423-3 0  9990
2 39358  74.9728 355.6249 0017477 327.2278  32.7825 14.91970221658066
